NORAD_CAT_ID,OBJECT_NAME,OBJECT_TYPE,EPOCH,MEAN_MOTION,ECCENTRICITY,INCLINATION,RA_OF_ASC_NODE,ARG_OF_PERICENTER,MEAN_ANOMALY,BSTAR,MEAN_MOTION_DOT,MEAN_MOTION_DDOT,TLE_LINE0,TLE_LINE1,TLE_LINE2,SEMIMAJOR_AXIS,PERIOD,APOGEE,PERIGEE,DECAYED
55412.0,STARLINK-5033,PAYLOAD,2023-12-07 11:07:00,14.98332116,0.0003005,70.0001,359.9915,277.9561,82.1257,-0.00011037,-1.41e-05,0.0,0 STARLINK-5033,1 55412U 23014X   23341.46320556 -.00001410  00000-0 -11037-3 0  9994,2 55412  70.0001 359.9915 0003005 277.9561  82.1257 14.98332116 47311,6950.186,96.107,574.14,569.963,0.0
55412.0,STARLINK-5033,PAYLOAD,2023-12-08 03:08:20,14.98338872,0.000326,69.9993,358.3077,274.9795,85.0991,-0.00014693,-1.846e-05,0.0,0 STARLINK-5033,1 55412U 23014X   23342.13079853 -.00001846  00000-0 -14693-3 0  9994,2 55412  69.9993 358.3077 0003260 274.9795  85.0991 14.98338872 47412,6950.165,96.106,574.296,569.765,0.0
55412.0,STARLINK-5033,PAYLOAD,2023-12-08 11:09:01,14.98339066,0.0003118,69.9996,357.4666,274.3548,85.7254,-0.00011944,-1.518e-05,0.0,0 STARLINK-5033,1 55412U 23014X   23342.46459592 -.00001518  00000-0 -11944-3 0  9994,2 55412  69.9996 357.4666 0003118 274.3548  85.7254 14.98339066 48406,6950.165,96.106,574.197,569.863,0.0
55412.0,STARLINK-5033,PAYLOAD,2023-12-09 03:10:19,14.98351839,0.000276,70.0,355.7848,286.5004,73.5851,0.00028082,3.261e-05,0.0,0 STARLINK-5033,1 55412U 23014X   23343.13216985  .00003261  00000-0  28082-3 0  9992,2 55412  70.0000 355.7848 0002760 286.5004  73.5851 14.98351839 47568,6950.125,96.106,573.909,570.072,0.0
55412.0,STARLINK-5033,PAYLOAD,2023-12-09 11:11:01,14.98324832,0.0003078,69.9993,354.9409,276.886,83.1949,-4.1007e-05,-5.82e-06,0.0,0 STARLINK-5033,1 55412U 23014X   23343.46599330 -.00000582  00000-0 -41007-4 0  9994,2 55412  69.9993 354.9409 0003078 276.8860  83.1949 14.98324832 47619,6950.209,96.107,574.213,569.935,0.0
55412.0,STARLINK-5033,PAYLOAD,2023-12-10 00:00:06,14.98323129,0.0002864,69.9998,353.5943,276.6202,83.4631,-9.5033e-05,-1.226e-05,0.0,0 STARLINK-5033,1 55412U 23014X   23344.00007734 -.00001226  00000-0 -95033-4 0  9991,2 55412  69.9998 353.5943 0002864 276.6202  83.4631 14.98323129 48634,6950.214,96.107,574.07,570.089,0.0
55412.0,STARLINK-5033,PAYLOAD,2023-12-11 04:50:31,14.98338295,0.000266,69.9998,350.5642,278.6471,81.4386,-0.0002928,-3.585e-05,0.0,0 STARLINK-5033,1 55412U 23014X   23345.20175342 -.00003585  00000-0 -29280-3 0  9995,2 55412  69.9998 350.5642 0002660 278.6471  81.4386 14.98338295 47871,6950.167,96.106,573.881,570.183,0.0
55412.0,STARLINK-5033,PAYLOAD,2023-12-11 09:38:55,14.98338118,0.0002338,69.9997,350.0589,267.8609,92.2282,-0.00032324,-3.948e-05,0.0,0 STARLINK-5033,1 55412U 23014X   23345.40203312 -.00003948  00000-0 -32324-3 0  9992,2 55412  69.9997 350.0589 0002338 267.8609  92.2282 14.98338118 48847,6950.168,96.106,573.658,570.408,0.0
55412.0,STARLINK-5033,PAYLOAD,2023-12-12 03:16:25,14.98318105,0.000291,69.999,348.2073,268.7059,91.3766,-5.3137e-06,-1.56e-06,0.0,0 STARLINK-5033,1 55412U 23014X   23346.13640229 -.00000156  00000-0 -53137-5 0  9990,2 55412  69.9990 348.2073 0002910 268.7059  91.3766 14.98318105 48012,6950.23,96.108,574.117,570.072,0.0
55412.0,STARLINK-5033,PAYLOAD,2023-12-12 09:40:57,14.98318176,0.0002745,69.9999,347.5353,264.8718,95.2128,-4.1435e-06,-1.42e-06,0.0,0 STARLINK-5033,1 55412U 23014X   23346.40344415 -.00000142  00000-0 -41435-5 0  9991,2 55412  69.9999 347.5353 0002745 264.8718  95.2128 14.98318176 48999,6950.229,96.108,574.002,570.187,0.0
55412.0,STARLINK-5033,PAYLOAD,2023-12-13 03:18:25,14.98326254,0.0002529,70.0011,345.6865,250.2803,109.8083,4.7954e-05,4.79e-06,0.0,0 STARLINK-5033,1 55412U 23014X   23347.13780068  .00000479  00000-0  47954-4 0  9992,2 55412  70.0011 345.6865 0002529 250.2803 109.8083 14.98326254 48165,6950.204,96.107,573.827,570.312,0.0
55412.0,STARLINK-5033,PAYLOAD,2023-12-13 09:42:57,14.98330317,0.0002795,69.9995,345.01,264.0395,96.0446,6.4077e-05,6.72e-06,0.0,0 STARLINK-5033,1 55412U 23014X   23347.40483782  .00000672  00000-0  64077-4 0  9995,2 55412  69.9995 345.0100 0002795 264.0395  96.0446 14.98330317 49147,6950.192,96.107,573.999,570.114,0.0
55412.0,STARLINK-5033,PAYLOAD,2023-12-14 03:20:26,14.98332014,0.000268,69.9997,343.1586,261.0073,99.0783,0.00011342,1.261e-05,0.0,0 STARLINK-5033,1 55412U 23014X   23348.13919508  .00001261  00000-0  11342-3 0  9997,2 55412  69.9997 343.1586 0002680 261.0073  99.0783 14.98332014 48310,6950.187,96.107,573.914,570.189,0.0
55412.0,STARLINK-5033,PAYLOAD,2023-12-14 09:44:58,14.98334241,0.0002782,69.9995,342.485,262.8035,97.2808,0.00012014,1.341e-05,0.0,0 STARLINK-5033,1 55412U 23014X   23348.40623291  .00001341  00000-0  12014-3 0  9994,2 55412  69.9995 342.4850 0002782 262.8035  97.2808 14.98334241 49294,6950.18,96.107,573.978,570.111,0.0
55412.0,STARLINK-5033,PAYLOAD,2023-12-15 04:58:35,14.98334589,0.0002668,69.9998,340.4661,258.2599,101.8261,-2.2169e-07,-9.6e-07,0.0,0 STARLINK-5033,1 55412U 23014X   23349.20735341 -.00000096  00000-0 -22169-6 0  9996,2 55412  69.9998 340.4661 0002668 258.2599 101.8261 14.98334589 48471,6950.179,96.107,573.898,570.189,0.0
55412.0,STARLINK-5033,PAYLOAD,2023-12-15 09:46:59,14.98332833,0.0002697,69.9997,339.9606,261.4986,98.5868,-2.0579e-05,-3.39e-06,0.0,0 STARLINK-5033,1 55412U 23014X   23349.40763463 -.00000339  00000-0 -20579-4 0  9995,2 55412  69.9997 339.9606 0002697 261.4986  98.5868 14.98332833 49443,6950.184,96.107,573.924,570.175,0.0
55412.0,STARLINK-5033,PAYLOAD,2023-12-16 09:49:00,14.98332026,0.0002651,69.9998,337.4351,268.331,91.7546,-6.6345e-05,-8.84e-06,0.0,0 STARLINK-5033,1 55412U 23014X   23350.40903459 -.00000884  00000-0 -66345-4 0  9994,2 55412  69.9998 337.4351 0002651 268.3310  91.7546 14.98332026 48655,6950.187,96.107,573.894,570.209,0.0
55412.0,STARLINK-5033,PAYLOAD,2023-12-17 08:14:53,14.98328094,0.000264,69.9997,335.0786,263.3914,96.6944,-9.8279e-06,-2.1e-06,0.0,0 STARLINK-5033,1 55412U 23014X   23351.34367475 -.00000210  00000-0 -98279-5 0  9995,2 55412  69.9997 335.0786 0002640 263.3914  96.6944 14.98328094 49739,6950.199,96.107,573.899,570.229,0.0
55412.0,STARLINK-5033,PAYLOAD,2023-12-18 03:28:29,14.98333889,0.0002766,69.9995,333.0586,264.6896,95.3947,4.8444e-05,4.85e-06,0.0,0 STARLINK-5033,1 55412U 23014X   23352.14478843  .00000485  00000-0  48444-4 0  9996,2 55412  69.9995 333.0586 0002766 264.6896  95.3947 14.98333889 48911,6950.181,96.107,573.968,570.123,0.0
55412.0,STARLINK-5033,PAYLOAD,2023-12-18 08:16:53,14.98337303,0.0002709,69.9996,332.5535,262.9924,97.0927,8.7417e-05,9.5e-06,0.0,0 STARLINK-5033,1 55412U 23014X   23352.34506436  .00000950  00000-0  87417-4 0  9998,2 55412  69.9996 332.5535 0002709 262.9924  97.0927 14.98337303 49889,6950.17,96.107,573.918,570.153,0.0
55412.0,STARLINK-5033,PAYLOAD,2023-12-19 03:30:31,14.98320994,0.0002501,70.0007,330.535,245.5846,114.5053,-4.4476e-05,-6.23e-06,0.0,0 STARLINK-5033,1 55412U 23014X   23353.14619835 -.00000623  00000-0 -44476-4 0  9992,2 55412  70.0007 330.5350 0002501 245.5846 114.5053 14.98320994 49061,6950.221,96.108,573.824,570.347,0.0
55412.0,STARLINK-5033,PAYLOAD,2023-12-19 08:18:56,14.98317626,0.0002404,70.0014,330.0308,236.7963,123.2966,-6.7978e-05,-9.04e-06,0.0,0 STARLINK-5033,1 55412U 23014X   23353.34648218 -.00000904  00000-0 -67978-4 0  9995,2 55412  70.0014 330.0308 0002404 236.7963 123.2966 14.98317626 50038,6950.231,96.108,573.767,570.425,0.0
55412.0,STARLINK-5033,PAYLOAD,2023-12-20 03:32:32,14.98330358,0.0002736,70.0002,328.0094,256.4033,103.6821,-5.0177e-05,-6.92e-06,0.0,0 STARLINK-5033,1 55412U 23014X   23354.14759451 -.00000692  00000-0 -50177-4 0  9993,2 55412  70.0002 328.0094 0002736 256.4033 103.6821 14.98330358 49216,6950.192,96.107,573.958,570.155,0.0
55412.0,STARLINK-5033,PAYLOAD,2023-12-20 08:20:56,14.98332884,0.0002748,70.0,327.5042,257.1303,102.9549,-3.4865e-05,-5.09e-06,0.0,0 STARLINK-5033,1 55412U 23014X   23354.34787231 -.00000509  00000-0 -34865-4 0  9995,2 55412  70.0000 327.5042 0002748 257.1303 102.9549 14.98332884 50185,6950.184,96.107,573.959,570.139,0.0
55412.0,STARLINK-5033,PAYLOAD,2023-12-20 22:46:08,14.98331691,0.0002919,69.9997,325.9887,260.5909,99.4921,0.00010164,1.12e-05,0.0,0 STARLINK-5033,1 55412U 23014X   23354.94870848  .00001120  00000-0  10164-3 0  9991,2 55412  69.9997 325.9887 0002919 260.5909  99.4921 14.98331691 50275,6950.188,96.107,574.081,570.024,0.0
55412.0,STARLINK-5033,PAYLOAD,2023-12-21 03:34:32,14.9833187,0.0002854,69.9999,325.4836,263.3685,96.7149,0.00010451,1.154e-05,0.0,0 STARLINK-5033,1 55412U 23014X   23355.14898838  .00001154  00000-0  10451-3 0  9999,2 55412  69.9999 325.4836 0002854 263.3685  96.7149 14.98331870 49365,6950.187,96.107,574.036,570.069,0.0
55412.0,STARLINK-5033,PAYLOAD,2023-12-21 08:22:56,14.98336823,0.0002694,69.9999,324.9786,256.7032,103.3827,0.00012819,1.437e-05,0.0,0 STARLINK-5033,1 55412U 23014X   23355.34926371  .00001437  00000-0  12819-3 0  9999,2 55412  69.9999 324.9786 0002694 256.7032 103.3827 14.98336823 50337,6950.172,96.107,573.909,570.164,0.0
55412.0,STARLINK-5033,PAYLOAD,2023-12-21 22:48:09,14.98364259,0.0002029,70.0011,323.4645,244.0103,116.0847,-0.0005718,-6.914e-05,0.0,0 STARLINK-5033,1 55412U 23014X   23355.95011010 -.00006914  00000-0 -57180-3 0  9998,2 55412  70.0011 323.4645 0002029 244.0103 116.0847 14.98364259 50421,6950.087,96.105,573.362,570.542,0.0
55412.0,STARLINK-5033,PAYLOAD,2023-12-22 06:48:48,14.98339294,0.0002556,70.0041,322.6256,205.0497,155.0539,0.00017707,2.021e-05,0.0,0 STARLINK-5033,1 55412U 23014X   23356.28389842  .00002021  00000-0  17707-3 0  9990,2 55412  70.0041 322.6256 0002556 205.0497 155.0539 14.98339294 49533,6950.164,96.106,573.806,570.253,0.0
55412.0,STARLINK-5033,PAYLOAD,2023-12-22 22:50:10,14.98328424,0.0002697,70.0043,320.9455,210.7009,149.3993,-3.2876e-05,-4.85e-06,0.0,0 STARLINK-5033,1 55412U 23014X   23356.95150752 -.00000485  00000-0 -32876-4 0  9999,2 55412  70.0043 320.9455 0002697 210.7009 149.3993 14.98328424 50574,6950.198,96.107,573.937,570.188,0.0
